GLOBALSTAR M001         
1 25162U 98008A   25022.42791896 -.00000056  00000+0  31330-3 0  9992
2 25162  52.0046  37.4669 0001262 303.0879 206.6007 12.38205915225658
GLOBALSTAR M004         
1 25163U 98008B   25022.50967743 -.00000041  00000+0  34697-3 0  9991
2 25163  51.9995 138.5757 0002318 339.9858 100.6609 12.63386201243274
GLOBALSTAR M002         
1 25164U 98008C   25023.07242767 -.00000048  00000+0  55083-3 0  9996
2 25164  51.9984 244.0571 0000355 192.1395 167.9417 11.61506887167273
GLOBALSTAR M003         
1 25165U 98008D   25022.47548448  .00000005  00000+0  10098-2 0  9993
2 25165  51.9957 212.0749 0008104   6.4765   8.8158 12.12066888215553
GLOBALSTAR M014         
1 25306U 98023A   25022.39945684 -.00000050  00000+0  50759-3 0  9991
2 25306  51.9813 172.0314 0002081  98.1072 276.4257 11.65478218174177
GLOBALSTAR M006         
1 25307U 98023B   25022.52493257 -.00000047  00000+0  58245-3 0  9995
2 25307  51.9904 218.7449 0003173 183.0843 209.1477 11.58171929199950
GLOBALSTAR M015         
1 25308U 98023C   25023.11826507 -.00000039  00000+0  77511-3 0  9998
2 25308  51.9846 309.0910 0012332 175.6058 327.4217 11.48857782177774
GLOBALSTAR M008         
1 25309U 98023D   25022.13625389 -.00000075  00000+0  16882-3 0  9999
2 25309  51.9957 261.4943 0001712 216.5125 306.3504 12.36060884219785
